[
  {
    "OBJECT_NAME": "STARLINK-1453",
    "OBJECT_ID": "20035P",
    "EPOCH": "2025-11-11T03:29:56.095296",
    "MEAN_MOTION": 15.06429826,
    "ECCENTRICITY": 0.0001715,
    "INCLINATION": 53.0516,
    "RA_OF_ASC_NODE": 208.7841,
    "ARG_OF_PERICENTER": 90.5318,
    "MEAN_ANOMALY": 269.5868,
    "EPHEMERIS_TYPE": 0,
    "CLASSIFICATION_TYPE": "U",
    "NORAD_CAT_ID": 45670,
    "ELEMENT_SET_NO": 999,
    "REV_AT_EPOCH": 30117,
    "BSTAR": 0.0007729200000000001,
    "MEAN_MOTION_DOT": 0.00011259,
    "MEAN_MOTION_DDOT": 0.0,
    "TLE_LINE1": "1 45670U 20035P   25315.14578814  .00011259  00000+0  77292-3 0  9993",
    "TLE_LINE2": "2 45670  53.0516 208.7841 0001715  90.5318 269.5868 15.06429826301173",
    "COMMENT": "Grouped by shell and plane from TLE"
  },
  {
    "OBJECT_NAME": "STARLINK-1420",
    "OBJECT_ID": "20035AQ",
    "EPOCH": "2025-11-11T02:56:45.440160",
    "MEAN_MOTION": 15.06406805,
    "ECCENTRICITY": 0.0001398,
    "INCLINATION": 53.0523,
    "RA_OF_ASC_NODE": 208.875,
    "ARG_OF_PERICENTER": 90.7293,
    "MEAN_ANOMALY": 269.3856,
    "EPHEMERIS_TYPE": 0,
    "CLASSIFICATION_TYPE": "U",
    "NORAD_CAT_ID": 45695,
    "ELEMENT_SET_NO": 999,
    "REV_AT_EPOCH": 30128,
    "BSTAR": 0.00043169000000000004,
    "MEAN_MOTION_DOT": 6.156e-05,
    "MEAN_MOTION_DDOT": 0.0,
    "TLE_LINE1": "1 45695U 20035AQ  25315.12274815  .00006156  00000+0  43169-3 0  9998",
    "TLE_LINE2": "2 45695  53.0523 208.8750 0001398  90.7293 269.3856 15.06406805301288",
    "COMMENT": "Grouped by shell and plane from TLE"
  },
  {
    "OBJECT_NAME": "STARLINK-1351",
    "OBJECT_ID": "20035AS",
    "EPOCH": "2025-11-11T02:36:50.640480",
    "MEAN_MOTION": 15.06427372,
    "ECCENTRICITY": 0.0001714,
    "INCLINATION": 53.0528,
    "RA_OF_ASC_NODE": 208.9498,
    "ARG_OF_PERICENTER": 79.8401,
    "MEAN_ANOMALY": 280.2781,
    "EPHEMERIS_TYPE": 0,
    "CLASSIFICATION_TYPE": "U",
    "NORAD_CAT_ID": 45697,
    "ELEMENT_SET_NO": 999,
    "REV_AT_EPOCH": 30128,
    "BSTAR": 0.0009174900000000001,
    "MEAN_MOTION_DOT": 0.00013421,
    "MEAN_MOTION_DDOT": 0.0,
    "TLE_LINE1": "1 45697U 20035AS  25315.10891945  .00013421  00000+0  91749-3 0  9997",
    "TLE_LINE2": "2 45697  53.0528 208.9498 0001714  79.8401 280.2781 15.06427372301287",
    "COMMENT": "Grouped by shell and plane from TLE"
  },
  {
    "OBJECT_NAME": "STARLINK-1400",
    "OBJECT_ID": "20035AV",
    "EPOCH": "2025-11-11T03:35:15.042624",
    "MEAN_MOTION": 15.06398185,
    "ECCENTRICITY": 7.76e-05,
    "INCLINATION": 53.0535,
    "RA_OF_ASC_NODE": 208.7686,
    "ARG_OF_PERICENTER": 83.0278,
    "MEAN_ANOMALY": 277.0799,
    "EPHEMERIS_TYPE": 0,
    "CLASSIFICATION_TYPE": "U",
    "NORAD_CAT_ID": 45700,
    "ELEMENT_SET_NO": 999,
    "REV_AT_EPOCH": 30128,
    "BSTAR": 0.0011257,
    "MEAN_MOTION_DOT": 0.00016524,
    "MEAN_MOTION_DDOT": 0.0,
    "TLE_LINE1": "1 45700U 20035AV  25315.14947966  .00016524  00000+0  11257-2 0  9993",
    "TLE_LINE2": "2 45700  53.0535 208.7686 0000776  83.0278 277.0799 15.06398185301285",
    "COMMENT": "Grouped by shell and plane from TLE"
  },
  {
    "OBJECT_NAME": "STARLINK-1403",
    "OBJECT_ID": "20035AW",
    "EPOCH": "2025-11-11T02:42:11.800512",
    "MEAN_MOTION": 15.06410357,
    "ECCENTRICITY": 0.0001598,
    "INCLINATION": 53.052,
    "RA_OF_ASC_NODE": 208.9338,
    "ARG_OF_PERICENTER": 84.2956,
    "MEAN_ANOMALY": 275.8216,
    "EPHEMERIS_TYPE": 0,
    "CLASSIFICATION_TYPE": "U",
    "NORAD_CAT_ID": 45701,
    "ELEMENT_SET_NO": 999,
    "REV_AT_EPOCH": 30127,
    "BSTAR": 0.0007058600000000001,
    "MEAN_MOTION_DOT": 0.00010251,
    "MEAN_MOTION_DDOT": 0.0,
    "TLE_LINE1": "1 45701U 20035AW  25315.11263658  .00010251  00000+0  70586-3 0  9992",
    "TLE_LINE2": "2 45701  53.0520 208.9338 0001598  84.2956 275.8216 15.06410357301270",
    "COMMENT": "Grouped by shell and plane from TLE"
  },
  {
    "OBJECT_NAME": "STARLINK-1423",
    "OBJECT_ID": "20035BF",
    "EPOCH": "2025-11-11T03:19:20.020224",
    "MEAN_MOTION": 15.06394907,
    "ECCENTRICITY": 0.0001397,
    "INCLINATION": 53.053,
    "RA_OF_ASC_NODE": 208.8184,
    "ARG_OF_PERICENTER": 83.9559,
    "MEAN_ANOMALY": 276.1589,
    "EPHEMERIS_TYPE": 0,
    "CLASSIFICATION_TYPE": "U",
    "NORAD_CAT_ID": 45710,
    "ELEMENT_SET_NO": 999,
    "REV_AT_EPOCH": 30128,
    "BSTAR": 0.00016277,
    "MEAN_MOTION_DOT": 2.143e-05,
    "MEAN_MOTION_DDOT": 0.0,
    "TLE_LINE1": "1 45710U 20035BF  25315.13842616  .00002143  00000+0  16277-3 0  9999",
    "TLE_LINE2": "2 45710  53.0530 208.8184 0001397  83.9559 276.1589 15.06394907301281",
    "COMMENT": "Grouped by shell and plane from TLE"
  },
  {
    "OBJECT_NAME": "STARLINK-1433",
    "OBJECT_ID": "20035BG",
    "EPOCH": "2025-11-11T02:52:48.271296",
    "MEAN_MOTION": 15.06408923,
    "ECCENTRICITY": 0.0001592,
    "INCLINATION": 53.0528,
    "RA_OF_ASC_NODE": 208.8995,
    "ARG_OF_PERICENTER": 83.899,
    "MEAN_ANOMALY": 276.218,
    "EPHEMERIS_TYPE": 0,
    "CLASSIFICATION_TYPE": "U",
    "NORAD_CAT_ID": 45711,
    "ELEMENT_SET_NO": 999,
    "REV_AT_EPOCH": 30127,
    "BSTAR": 0.00047220000000000004,
    "MEAN_MOTION_DOT": 6.76e-05,
    "MEAN_MOTION_DDOT": 0.0,
    "TLE_LINE1": "1 45711U 20035BG  25315.12000314  .00006760  00000+0  47220-3 0  9991",
    "TLE_LINE2": "2 45711  53.0528 208.8995 0001592  83.8990 276.2180 15.06408923301275",
    "COMMENT": "Grouped by shell and plane from TLE"
  },
  {
    "OBJECT_NAME": "STARLINK-1434",
    "OBJECT_ID": "20035BH",
    "EPOCH": "2025-11-11T00:25:22.574496",
    "MEAN_MOTION": 15.16117085,
    "ECCENTRICITY": 0.0006807,
    "INCLINATION": 53.0485,
    "RA_OF_ASC_NODE": 204.8273,
    "ARG_OF_PERICENTER": 95.8388,
    "MEAN_ANOMALY": 264.3381,
    "EPHEMERIS_TYPE": 0,
    "CLASSIFICATION_TYPE": "U",
    "NORAD_CAT_ID": 45712,
    "ELEMENT_SET_NO": 999,
    "REV_AT_EPOCH": 30133,
    "BSTAR": 0.0025269000000000003,
    "MEAN_MOTION_DOT": 0.00049331,
    "MEAN_MOTION_DDOT": 0.0,
    "TLE_LINE1": "1 45712U 20035BH  25315.01762239  .00049331  00000+0  25269-2 0  9990",
    "TLE_LINE2": "2 45712  53.0485 204.8273 0006807  95.8388 264.3381 15.16117085301336",
    "COMMENT": "Grouped by shell and plane from TLE"
  },
  {
    "OBJECT_NAME": "STARLINK-2049",
    "OBJECT_ID": "21005H",
    "EPOCH": "2025-11-11T03:22:39.461664",
    "MEAN_MOTION": 15.06395496,
    "ECCENTRICITY": 8.75e-05,
    "INCLINATION": 53.0516,
    "RA_OF_ASC_NODE": 203.8074,
    "ARG_OF_PERICENTER": 96.5998,
    "MEAN_ANOMALY": 263.5091,
    "EPHEMERIS_TYPE": 0,
    "CLASSIFICATION_TYPE": "U",
    "NORAD_CAT_ID": 47356,
    "ELEMENT_SET_NO": 999,
    "REV_AT_EPOCH": 26559,
    "BSTAR": 0.00040013,
    "MEAN_MOTION_DOT": 5.683e-05,
    "MEAN_MOTION_DDOT": 0.0,
    "TLE_LINE1": "1 47356U 21005H   25315.14073451  .00005683  00000+0  40013-3 0  9996",
    "TLE_LINE2": "2 47356  53.0516 203.8074 0000875  96.5998 263.5091 15.06395496265598",
    "COMMENT": "Grouped by shell and plane from TLE"
  },
  {
    "OBJECT_NAME": "STARLINK-2055",
    "OBJECT_ID": "21005K",
    "EPOCH": "2025-11-11T02:01:40.837152",
    "MEAN_MOTION": 15.06402784,
    "ECCENTRICITY": 0.0001665,
    "INCLINATION": 53.0528,
    "RA_OF_ASC_NODE": 204.0491,
    "ARG_OF_PERICENTER": 89.903,
    "MEAN_ANOMALY": 270.2149,
    "EPHEMERIS_TYPE": 0,
    "CLASSIFICATION_TYPE": "U",
    "NORAD_CAT_ID": 47358,
    "ELEMENT_SET_NO": 999,
    "REV_AT_EPOCH": 26558,
    "BSTAR": 0.00025144,
    "MEAN_MOTION_DOT": 3.466e-05,
    "MEAN_MOTION_DDOT": 0.0,
    "TLE_LINE1": "1 47358U 21005K   25315.08450043  .00003466  00000+0  25144-3 0  9992",
    "TLE_LINE2": "2 47358  53.0528 204.0491 0001665  89.9030 270.2149 15.06402784265587",
    "COMMENT": "Grouped by shell and plane from TLE"
  },
  {
    "OBJECT_NAME": "STARLINK-2071",
    "OBJECT_ID": "21005N",
    "EPOCH": "2025-11-11T02:13:39.611712",
    "MEAN_MOTION": 15.06395523,
    "ECCENTRICITY": 0.0001499,
    "INCLINATION": 53.0521,
    "RA_OF_ASC_NODE": 204.0213,
    "ARG_OF_PERICENTER": 80.3346,
    "MEAN_ANOMALY": 279.7813,
    "EPHEMERIS_TYPE": 0,
    "CLASSIFICATION_TYPE": "U",
    "NORAD_CAT_ID": 47361,
    "ELEMENT_SET_NO": 999,
    "REV_AT_EPOCH": 26558,
    "BSTAR": 0.00031719,
    "MEAN_MOTION_DOT": 4.446e-05,
    "MEAN_MOTION_DDOT": 0.0,
    "TLE_LINE1": "1 47361U 21005N   25315.09281958  .00004446  00000+0  31719-3 0  9998",
    "TLE_LINE2": "2 47361  53.0521 204.0213 0001499  80.3346 279.7813 15.06395523265580",
    "COMMENT": "Grouped by shell and plane from TLE"
  },
  {
    "OBJECT_NAME": "STARLINK-2100",
    "OBJECT_ID": "21005AH",
    "EPOCH": "2025-11-11T02:34:51.002400",
    "MEAN_MOTION": 15.06427279,
    "ECCENTRICITY": 0.000205,
    "INCLINATION": 53.0544,
    "RA_OF_ASC_NODE": 203.9514,
    "ARG_OF_PERICENTER": 91.7183,
    "MEAN_ANOMALY": 268.4041,
    "EPHEMERIS_TYPE": 0,
    "CLASSIFICATION_TYPE": "U",
    "NORAD_CAT_ID": 47380,
    "ELEMENT_SET_NO": 999,
    "REV_AT_EPOCH": 26559,
    "BSTAR": 0.0004997500000000001,
    "MEAN_MOTION_DOT": 7.175e-05,
    "MEAN_MOTION_DDOT": 0.0,
    "TLE_LINE1": "1 47380U 21005AH  25315.10753475  .00007175  00000+0  49975-3 0  9994",
    "TLE_LINE2": "2 47380  53.0544 203.9514 0002050  91.7183 268.4041 15.06427279265590",
    "COMMENT": "Grouped by shell and plane from TLE"
  },
  {
    "OBJECT_NAME": "STARLINK-2101",
    "OBJECT_ID": "21005AJ",
    "EPOCH": "2025-11-11T02:58:07.525344",
    "MEAN_MOTION": 15.06413143,
    "ECCENTRICITY": 0.0001802,
    "INCLINATION": 53.0544,
    "RA_OF_ASC_NODE": 208.9679,
    "ARG_OF_PERICENTER": 102.3935,
    "MEAN_ANOMALY": 257.7256,
    "EPHEMERIS_TYPE": 0,
    "CLASSIFICATION_TYPE": "U",
    "NORAD_CAT_ID": 47381,
    "ELEMENT_SET_NO": 999,
    "REV_AT_EPOCH": 26552,
    "BSTAR": 0.00057646,
    "MEAN_MOTION_DOT": 8.318e-05,
    "MEAN_MOTION_DDOT": 0.0,
    "TLE_LINE1": "1 47381U 21005AJ  25315.12369821  .00008318  00000+0  57646-3 0  9999",
    "TLE_LINE2": "2 47381  53.0544 208.9679 0001802 102.3935 257.7256 15.06413143265523",
    "COMMENT": "Grouped by shell and plane from TLE"
  }
]